{
    "links": {
        "self": "http://www.neowsapp.com/rest/v1/neo/3892315?api_key=iIulBulltgU6a56xZRHN4H3l9WmuAYTsLGpBGhQ2"
    },
    "id": "3892315",
    "neo_reference_id": "3892315",
    "name": "(2019 VM1)",
    "designation": "2019 VM1",
    "nasa_jpl_url": "http://ssd.jpl.nasa.gov/sbdb.cgi?sstr=3892315",
    "absolute_magnitude_h": 26.4,
    "estimated_diameter": {
        "kilometers": {
            "estimated_diameter_min": 0.0139493823,
            "estimated_diameter_max": 0.0311917671
        },
        "meters": {
            "estimated_diameter_min": 13.9493822934,
            "estimated_diameter_max": 31.1917670523
        },
        "miles": {
            "estimated_diameter_min": 0.0086677416,
            "estimated_diameter_max": 0.0193816595
        },
        "feet": {
            "estimated_diameter_min": 45.7656914036,
            "estimated_diameter_max": 102.3351970157
        }
    },
    "is_potentially_hazardous_asteroid": false,
    "close_approach_data": [
        {
            "close_approach_date": "2019-11-08",
            "close_approach_date_full": "2019-Nov-08 16:33",
            "epoch_date_close_approach": 1573230780000,
            "relative_velocity": {
                "kilometers_per_second": "6.0639648096",
                "kilometers_per_hour": "21830.2733144853",
                "miles_per_hour": "13564.4828825478"
            },
            "miss_distance": {
                "astronomical": "0.0290477595",
                "lunar": "11.2995784455",
                "kilometers": "4345482.949472265",
                "miles": "2700157.896816657"
            },
            "orbiting_body": "Earth"
        }
    ],
    "orbital_data": {
        "orbit_id": "1",
        "orbit_determination_date": "2019-11-04 09:12:03",
        "first_observation_date": "2019-11-03",
        "last_observation_date": "2019-11-04",
        "data_arc_in_days": 1,
        "observations_used": 11,
        "orbit_uncertainty": "8",
        "minimum_orbit_intersection": ".0232246",
        "jupiter_tisserand_invariant": "4.551",
        "epoch_osculation": "2458791.5",
        "eccentricity": ".3082817088964946",
        "semi_major_axis": "1.464453067077118",
        "inclination": "8.463767391646071",
        "ascending_node_longitude": "49.66570738486399",
        "orbital_period": "647.3089529030157",
        "perihelion_distance": "1.012988972959871",
        "perihelion_argument": "1.200088957973974",
        "aphelion_distance": "1.915917161194364",
        "perihelion_time": "2458800.064145182772",
        "mean_anomaly": "355.2370622220332",
        "mean_motion": ".5561486495521061",
        "equinox": "J2000",
        "orbit_class": {
            "orbit_class_type": "APO",
            "orbit_class_description": "Near-Earth asteroid orbits which cross the Earth’s orbit similar to that of 1862 Apollo",
            "orbit_class_range": "a (semi-major axis) > 1.0 AU; q (perihelion) < 1.017 AU"
        }
    },
    "is_sentry_object": false
}